ONEWEB-0674             
1 55833U 23029AP  24293.89195279 -.00000196  00000+0 -56353-3 0  9992
2 55833  87.9008  50.0925 0002098 114.4028 245.7320 13.14502639 79898
ONEWEB-0675             
1 55834U 23029AQ  24293.88596245  .00000020  00000+0  18107-4 0  9990
2 55834  87.9157  65.3570 0001595  83.3664 276.7650 13.19725964 79084
ONEWEB-0720             
1 55835U 23029AR  24293.87806173  .00000115  00000+0  25531-3 0  9997
2 55835  87.9160  65.3578 0002196  96.3750 263.7633 13.19728150 79004
ONEWEB-0537             
1 56046U 23043A   24293.57482737  .00000130  00000+0  30759-3 0  9996
2 56046  87.9131 349.3984 0001674  89.5910 270.5413 13.16593838 79276
ONEWEB-0538             
1 56047U 23043B   24294.17647198  .00000004  00000+0 -23869-4 0  9994
2 56047  87.9136 349.2997 0001984  90.2157 269.9202 13.16593599 80275
ONEWEB-0546             
1 56048U 23043C   24293.40382475  .00000111  00000+0  25550-3 0  9990
2 56048  87.9143 349.4197 0001148  87.2224 272.9038 13.16591941 79257
ONEWEB-0547             
1 56049U 23043D   24293.45109061  .00000120  00000+0  25797-3 0  9997
2 56049  87.9362   4.6238 0001955  94.2385 265.8972 13.21827692 78202
ONEWEB-0548             
1 56050U 23043E   24293.42916657 -.00000011  00000+0 -61665-4 0  9999
2 56050  87.9144 349.4576 0001994 115.0281 245.1057 13.16593145 79255
